SAUDISAT 2              
1 28371U 04025F   26169.95225642  .00000175  00000+0  50287-4 0  9999
2 28371  98.5507 169.9798 0023538 292.5681  67.3025 14.56684729166008
COSMOS 2407             
1 28380U 04028A   26169.73770013  .00000063  00000+0  48806-4 0  9995
2 28380  82.9607  73.6859 0037860 247.4312 172.0403 13.76334853100090
COSMOS 2414             
1 28521U 05002A   26169.76231487  .00000045  00000+0  24703-4 0  9995
2 28521  82.9498  42.4551 0039382 326.7083  33.1603 13.87926644 84036
INMARSAT 4-F1           
1 28628U 05009A   26169.78757057  .00000024  00000+0  00000+0 0  9994
2 28628   5.1714  42.7664 0002613  44.2002 281.6887  1.00271302 77683
SJ-7                    
1 28737U 05024A   26169.60320351  .00006250  00000+0  27961-3 0  9992
2 28737  97.7278 199.7449 0016200  33.3423 326.8829 15.21561340148244
CUBESAT XI-V            
1 28895U 05043F   26169.96537174  .00001071  00000+0  17623-3 0  9990
2 28895  98.2987 325.6244 0013771 194.9475 165.1327 14.72635479102018
HINODE (SOLAR-B)        
1 29479U 06041A   26169.75240310  .00000519  00000+0  97550-4 0  9992
2 29479  98.0545 185.8818 0015978 284.3528  75.5904 14.68624897 55101
SHIJIAN-6 02B (SJ-6 02B)
1 29506U 06046B   26170.01250865  .00000965  00000+0  79404-4 0  9998
2 29506  97.7153 199.0602 0015397  55.3791 304.8883 15.01380804 71011
DMSP 5D-3 F17 (USA 191) 
1 29522U 06050A   26169.93747873 -.00000017  00000+0  13719-4 0  9996
2 29522  98.7378 176.4718 0011111  54.8521 305.3693 14.14993114 12670
LAPAN-TUBSAT            
1 29709U 07001A   26169.93780207  .00000055  00000+0  12888-4 0  9995
2 29709  98.1338 169.2012 0012026 173.7750 186.3616 14.85949684 51413
HAIYANG-1B              
1 31113U 07010A   26169.89281191  .00000067  00000+0  41153-4 0  9990
2 31113  98.3495 151.6719 0013123 191.1688 168.9207 14.31027257   884
COSMO-SKYMED 2          
1 32376U 07059A   26169.98383016  .00000284  00000+0  42283-4 0  9990
2 32376  97.8886 353.5557 0001355  87.8582 272.2787 14.82156253  2277
CARTOSAT-2A             
1 32783U 08021A   26169.94054567  .00000074  00000+0  16648-4 0  9997
2 32783  97.7627 218.5893 0013224 103.7335 256.5350 14.79239357979060
CUTE-1.7+APD II (CO-65) 
1 32785U 08021C   26169.90603696  .00004403  00000+0  27890-3 0  9998
2 32785  97.8275 151.3603 0009576  33.3397 326.8433 15.09464113985453
SEEDS II (CO-66)        
1 32791U 08021J   26169.44123302  .00014056  00000+0  44622-3 0  9992
2 32791  97.7517 167.3987 0000890 357.5135   2.6101 15.32786684987483
YUBILEINY (RS30)        
1 32953U 08025A   26169.94945740 -.00000022  00000+0 -22693-3 0  9993
2 32953  82.5038 354.3433 0018772 309.8261  50.1167 12.43179362819915
FENGYUN 3A              
1 32958U 08026A   26169.73893577  .00000063  00000+0  50315-4 0  9992
2 32958  98.6883 110.5431 0009641 119.6023 240.6115 14.19571456935625
HUANJING 1A (HJ-1A)     
1 33320U 08041A   26169.98686881  .00001125  00000+0  14091-3 0  9998
2 33320  97.6681 155.7559 0020129 129.2708 231.0296 14.83989981958678
HUANJING 1B (HJ-1B)     
1 33321U 08041B   26169.95675777  .00000223  00000+0  33280-4 0  9998
2 33321  97.6519 158.8934 0036192 175.0667 185.0911 14.83318556958676
SHIJIAN-6 03A (SJ-6 03A)
1 33408U 08053A   26169.96146872  .00003867  00000+0  19808-3 0  9993
2 33408  97.8406 203.3437 0011448  14.5419 345.6141 15.17179647963233
SHIJIAN-6 03B (SJ-6 03B)
1 33409U 08053B   26169.96230147  .00000234  00000+0  21429-4 0  9991
2 33409  97.8566 189.8836 0020639  39.2768 320.9950 15.04308254963019
